{
 "type": "FeatureCollection",
 "name": "pacific-link-corridors",
 "description": "Centrelines of the Original and Optimized corridors from the Government of Alberta submission to the Major Projects Office (Appendix 2, Map 1, published 2026-06-18). Generalized corridor, for illustration only; not survey data.",
 "source": "Government of Alberta, West Coast Oil Pipeline Project submission to the Major Projects Office, PDF page 88 (Appendix 2, Map 1, published 2026-06-18). Corridor bands extracted from the vector PDF by fill colour, reduced to centrelines by skeletonization, georeferenced with an affine fit in Lambert Conformal Conic (49/77, lon0 -95) to 21 municipal-boundary centroids (median residual 0.25 km), ends joined to the terminals. Illustrative, not survey data.",
 "features": [
  {
   "type": "Feature",
   "properties": {
    "line": "original",
    "name": "Original corridor",
    "length_km": 1246
   },
   "geometry": {
    "type": "LineString",
    "coordinates": [
     [
      -112.93,
      53.8
     ],
     [
      -113.05801,
      53.80851
     ],
     [
      -113.08564,
      53.78089
     ],
     [
      -113.13785,
      53.76524
     ],
     [
      -113.17286,
      53.76615
     ],
     [
      -113.22115,
      53.75982
     ],
     [
      -113.26585,
      53.75905
     ],
     [
      -113.3756,
      53.73903
     ],
     [
      -113.42688,
      53.73457
     ],
     [
      -113.44316,
      53.72928
     ],
     [
      -113.5135,
      53.72522
     ],
     [
      -113.71422,
      53.72389
     ],
     [
      -113.76894,
      53.71367
     ],
     [
      -113.78209,
      53.70637
     ],
     [
      -113.80964,
      53.66914
     ],
     [
      -113.81481,
      53.63335
     ],
     [
      -113.82907,
      53.6053
     ],
     [
      -113.86764,
      53.59661
     ],
     [
      -113.93778,
      53.59038
     ],
     [
      -113.95719,
      53.58319
     ],
     [
      -113.98044,
      53.56284
     ],
     [
      -114.022,
      53.55604
     ],
     [
      -114.0696,
      53.55499
     ],
     [
      -114.11992,
      53.56341
     ],
     [
      -114.14843,
      53.56388
     ],
     [
      -114.18601,
      53.57395
     ],
     [
      -114.31294,
      53.57216
     ],
     [
      -114.33211,
      53.56868
     ],
     [
      -114.48738,
      53.57088
     ],
     [
      -114.51886,
      53.57697
     ],
     [
      -114.56641,
      53.57758
     ],
     [
      -114.60425,
      53.58372
     ],
     [
      -114.9055,
      53.58514
     ],
     [
      -114.92145,
      53.58152
     ],
     [
      -115.01344,
      53.58046
     ],
     [
      -115.11774,
      53.5964
     ],
     [
      -115.33025,
      53.5978
     ],
     [
      -115.37778,
      53.60183
     ],
     [
      -115.45074,
      53.60218
     ],
     [
      -115.49192,
      53.60802
     ],
     [
      -115.85362,
      53.62021
     ],
     [
      -116.02813,
      53.59942
     ],
     [
      -116.18677,
      53.60293
     ],
     [
      -116.21212,
      53.59909
     ],
     [
      -116.2914,
      53.59697
     ],
     [
      -116.43739,
      53.60203
     ],
     [
      -116.47534,
      53.59429
     ],
     [
      -116.53558,
      53.59208
     ],
     [
      -116.56399,
      53.58437
     ],
     [
      -116.63685,
      53.58013
     ],
     [
      -116.68413,
      53.56659
     ],
     [
      -116.71555,
      53.55315
     ],
     [
      -116.75661,
      53.54718
     ],
     [
      -116.81041,
      53.54486
     ],
     [
      -116.97527,
      53.54904
     ],
     [
      -117.06701,
      53.54432
     ],
     [
      -117.08906,
      53.54031
     ],
     [
      -117.12408,
      53.54559
     ],
     [
      -117.16842,
      53.54508
     ],
     [
      -117.19071,
      53.54859
     ],
     [
      -117.24126,
      53.54421
     ],
     [
      -117.26639,
      53.53823
     ],
     [
      -117.29434,
      53.52278
     ],
     [
      -117.36304,
      53.49734
     ],
     [
      -117.44127,
      53.47549
     ],
     [
      -117.47219,
      53.45806
     ],
     [
      -117.5116,
      53.41785
     ],
     [
      -117.52698,
      53.40818
     ],
     [
      -117.5827,
      53.38279
     ],
     [
      -117.63877,
      53.36681
     ],
     [
      -117.69094,
      53.33576
     ],
     [
      -117.72991,
      53.2936
     ],
     [
      -117.75722,
      53.27237
     ],
     [
      -117.81259,
      53.24688
     ],
     [
      -117.83382,
      53.2314
     ],
     [
      -117.86798,
      53.22324
     ],
     [
      -117.908,
      53.2074
     ],
     [
      -117.93908,
      53.20116
     ],
     [
      -117.98189,
      53.17959
     ],
     [
      -118.04376,
      53.10669
     ],
     [
      -118.1043,
      53.06962
     ],
     [
      -118.11217,
      53.04305
     ],
     [
      -118.10743,
      53.01486
     ],
     [
      -118.10044,
      53.00181
     ],
     [
      -118.06765,
      52.97419
     ],
     [
      -118.05287,
      52.93302
     ],
     [
      -118.06148,
      52.91964
     ],
     [
      -118.06064,
      52.90458
     ],
     [
      -118.08395,
      52.87583
     ],
     [
      -118.09919,
      52.86986
     ],
     [
      -118.15795,
      52.86297
     ],
     [
      -118.19849,
      52.86399
     ],
     [
      -118.23937,
      52.87064
     ],
     [
      -118.27681,
      52.8717
     ],
     [
      -118.31794,
      52.88208
     ],
     [
      -118.34283,
      52.88151
     ],
     [
      -118.40565,
      52.88948
     ],
     [
      -118.4461,
      52.88851
     ],
     [
      -118.47074,
      52.88415
     ],
     [
      -118.52558,
      52.86584
     ],
     [
      -118.57183,
      52.85903
     ],
     [
      -118.63751,
      52.86301
     ],
     [
      -118.66278,
      52.86801
     ],
     [
      -118.67576,
      52.87522
     ],
     [
      -118.75869,
      52.9013
     ],
     [
      -118.82037,
      52.93357
     ],
     [
      -118.8878,
      52.95811
     ],
     [
      -118.98991,
      52.98537
     ],
     [
      -119.05114,
      53.0081
     ],
     [
      -119.09201,
      53.01066
     ],
     [
      -119.14927,
      53.02213
     ],
     [
      -119.19608,
      53.02069
     ],
     [
      -119.25454,
      53.00943
     ],
     [
      -119.30852,
      52.98317
     ],
     [
      -119.34197,
      52.97266
     ],
     [
      -119.35342,
      52.96096
     ],
     [
      -119.35519,
      52.94581
     ],
     [
      -119.33265,
      52.90314
     ],
     [
      -119.30528,
      52.87573
     ],
     [
      -119.29675,
      52.84959
     ],
     [
      -119.27876,
      52.82187
     ],
     [
      -119.27597,
      52.7899
     ],
     [
      -119.2647,
      52.76762
     ],
     [
      -119.26144,
      52.73001
     ],
     [
      -119.25346,
      52.70952
     ],
     [
      -119.2393,
      52.68923
     ],
     [
      -119.21652,
      52.67675
     ],
     [
      -119.16293,
      52.62941
     ],
     [
      -119.1274,
      52.61165
     ],
     [
      -119.10948,
      52.58204
     ],
     [
      -119.10792,
      52.52556
     ],
     [
      -119.13019,
      52.45892
     ],
     [
      -119.1786,
      52.37453
     ],
     [
      -119.18851,
      52.34597
     ],
     [
      -119.18614,
      52.31779
     ],
     [
      -119.2001,
      52.26462
     ],
     [
      -119.23476,
      52.20326
     ],
     [
      -119.27671,
      52.15673
     ],
     [
      -119.29564,
      52.12788
     ],
     [
      -119.30011,
      52.10891
     ],
     [
      -119.31867,
      52.0763
     ],
     [
      -119.32916,
      52.02137
     ],
     [
      -119.34272,
      52.00211
     ],
     [
      -119.33749,
      51.94207
     ],
     [
      -119.32193,
      51.90307
     ],
     [
      -119.30803,
      51.88284
     ],
     [
      -119.29907,
      51.84927
     ],
     [
      -119.2981,
      51.83802
     ],
     [
      -119.31113,
      51.81314
     ],
     [
      -119.31032,
      51.80377
     ],
     [
      -119.3378,
      51.77089
     ],
     [
      -119.34425,
      51.74058
     ],
     [
      -119.36946,
      51.71718
     ],
     [
      -119.4097,
      51.69325
     ],
     [
      -119.44187,
      51.68087
     ],
     [
      -119.48356,
      51.67379
     ],
     [
      -119.63137,
      51.67042
     ],
     [
      -119.67284,
      51.66138
     ],
     [
      -119.68399,
      51.65157
     ],
     [
      -119.68593,
      51.64022
     ],
     [
      -119.70696,
      51.60748
     ],
     [
      -119.71828,
      51.59954
     ],
     [
      -119.7775,
      51.58792
     ],
     [
      -119.86561,
      51.59396
     ],
     [
      -119.9218,
      51.61246
     ],
     [
      -119.97261,
      51.63679
     ],
     [
      -120.02173,
      51.64423
     ],
     [
      -120.08394,
      51.63232
     ],
     [
      -120.1329,
      51.58141
     ],
     [
      -120.18196,
      51.56056
     ],
     [
      -120.20716,
      51.54258
     ],
     [
      -120.22151,
      51.50812
     ],
     [
      -120.22019,
      51.44049
     ],
     [
      -120.21279,
      51.42764
     ],
     [
      -120.20915,
      51.39395
     ],
     [
      -120.19097,
      51.36464
     ],
     [
      -120.18736,
      51.33096
     ],
     [
      -120.17978,
      51.31624
     ],
     [
      -120.17816,
      51.27309
     ],
     [
      -120.1708,
      51.26025
     ],
     [
      -120.16284,
      51.21361
     ],
     [
      -120.20894,
      51.11399
     ],
     [
      -120.22927,
      51.0812
     ],
     [
      -120.2367,
      51.03956
     ],
     [
      -120.24848,
      51.01089
     ],
     [
      -120.2509,
      50.95071
     ],
     [
      -120.26091,
      50.93339
     ],
     [
      -120.26419,
      50.90884
     ],
     [
      -120.27928,
      50.88379
     ],
     [
      -120.30614,
      50.85822
     ],
     [
      -120.32831,
      50.84411
     ],
     [
      -120.35347,
      50.8036
     ],
     [
      -120.35799,
      50.76399
     ],
     [
      -120.38096,
      50.73108
     ],
     [
      -120.40638,
      50.72056
     ],
     [
      -120.41606,
      50.70137
     ],
     [
      -120.40567,
      50.60804
     ],
     [
      -120.39233,
      50.56738
     ],
     [
      -120.37815,
      50.54552
     ],
     [
      -120.36799,
      50.5066
     ],
     [
      -120.37327,
      50.47449
     ],
     [
      -120.38562,
      50.45332
     ],
     [
      -120.3961,
      50.41536
     ],
     [
      -120.43323,
      50.35372
     ],
     [
      -120.44114,
      50.31963
     ],
     [
      -120.45611,
      50.29646
     ],
     [
      -120.46006,
      50.27942
     ],
     [
      -120.48683,
      50.25758
     ],
     [
      -120.5196,
      50.23734
     ],
     [
      -120.63049,
      50.21152
     ],
     [
      -120.67142,
      50.18709
     ],
     [
      -120.70874,
      50.15719
     ],
     [
      -120.73376,
      50.12226
     ],
     [
      -120.74447,
      50.11424
     ],
     [
      -120.74893,
      50.10279
     ],
     [
      -120.77299,
      50.08475
     ],
     [
      -120.8126,
      50.07531
     ],
     [
      -120.8375,
      50.06471
     ],
     [
      -120.88286,
      50.05495
     ],
     [
      -120.89085,
      50.04893
     ],
     [
      -120.90965,
      50.01239
     ],
     [
      -120.90936,
      49.98619
     ],
     [
      -120.92137,
      49.91818
     ],
     [
      -120.91932,
      49.90143
     ],
     [
      -120.93122,
      49.88023
     ],
     [
      -120.93704,
      49.83314
     ],
     [
      -120.95789,
      49.7909
     ],
     [
      -120.9819,
      49.77469
     ],
     [
      -120.99923,
      49.75134
     ],
     [
      -121.00897,
      49.71341
     ],
     [
      -121.0085,
      49.66293
     ],
     [
      -121.02153,
      49.62858
     ],
     [
      -121.05663,
      49.60991
     ],
     [
      -121.10143,
      49.60006
     ],
     [
      -121.17003,
      49.57396
     ],
     [
      -121.18717,
      49.55059
     ],
     [
      -121.19027,
      49.52985
     ],
     [
      -121.20192,
      49.50865
     ],
     [
      -121.23873,
      49.48234
     ],
     [
      -121.25769,
      49.45138
     ],
     [
      -121.29277,
      49.43449
     ],
     [
      -121.31662,
      49.39765
     ],
     [
      -121.37437,
      49.37947
     ],
     [
      -121.51542,
      49.36399
     ],
     [
      -121.57896,
      49.34722
     ],
     [
      -121.63036,
      49.30494
     ],
     [
      -121.65409,
      49.29046
     ],
     [
      -121.6814,
      49.21966
     ],
     [
      -121.72074,
      49.19489
     ],
     [
      -121.76363,
      49.17549
     ],
     [
      -121.81063,
      49.16516
     ],
     [
      -121.91881,
      49.12487
     ],
     [
      -121.98182,
      49.10785
     ],
     [
      -122.01068,
      49.09109
     ],
     [
      -122.04061,
      49.08172
     ],
     [
      -122.06915,
      49.06308
     ],
     [
      -122.11539,
      49.04891
     ],
     [
      -122.18325,
      49.0464
     ],
     [
      -122.6354,
      49.04594
     ],
     [
      -122.65911,
      49.05177
     ],
     [
      -122.68583,
      49.0761
     ],
     [
      -122.93034,
      49.09048
     ],
     [
      -122.98101,
      49.08678
     ],
     [
      -123.01915,
      49.0765
     ],
     [
      -123.07787,
      49.05344
     ],
     [
      -123.10286,
      49.04971
     ],
     [
      -123.16,
      49.02
     ]
    ]
   }
  },
  {
   "type": "Feature",
   "properties": {
    "line": "optimized",
    "name": "Optimized corridor",
    "length_km": 1211
   },
   "geometry": {
    "type": "LineString",
    "coordinates": [
     [
      -112.93,
      53.8
     ],
     [
      -113.06646,
      53.82345
     ],
     [
      -113.11719,
      53.82857
     ],
     [
      -113.16543,
      53.82415
     ],
     [
      -113.19299,
      53.7965
     ],
     [
      -113.20459,
      53.76844
     ],
     [
      -113.36596,
      53.74028
     ],
     [
      -113.43009,
      53.73424
     ],
     [
      -113.44636,
      53.72894
     ],
     [
      -113.5167,
      53.72488
     ],
     [
      -113.69187,
      53.7249
     ],
     [
      -113.76886,
      53.71514
     ],
     [
      -113.80871,
      53.68571
     ],
     [
      -113.82237,
      53.66898
     ],
     [
      -113.83856,
      53.66363
     ],
     [
      -113.94089,
      53.65235
     ],
     [
      -113.99823,
      53.64962
     ],
     [
      -114.02084,
      53.64248
     ],
     [
      -114.07798,
      53.64348
     ],
     [
      -114.13574,
      53.63124
     ],
     [
      -114.15161,
      53.63151
     ],
     [
      -114.19347,
      53.61897
     ],
     [
      -114.23155,
      53.61958
     ],
     [
      -114.32396,
      53.61157
     ],
     [
      -114.37789,
      53.61236
     ],
     [
      -114.40984,
      53.60716
     ],
     [
      -114.55583,
      53.60724
     ],
     [
      -114.58458,
      53.60194
     ],
     [
      -114.60083,
      53.59082
     ],
     [
      -114.65182,
      53.58389
     ],
     [
      -115.01657,
      53.58196
     ],
     [
      -115.11458,
      53.59596
     ],
     [
      -115.32709,
      53.59737
     ],
     [
      -115.37144,
      53.60138
     ],
     [
      -115.4444,
      53.60174
     ],
     [
      -115.48558,
      53.60758
     ],
     [
      -115.85679,
      53.6198
     ],
     [
      -115.93614,
      53.6085
     ],
     [
      -115.97421,
      53.60849
     ],
     [
      -116.02496,
      53.6009
     ],
     [
      -116.17409,
      53.60444
     ],
     [
      -116.21846,
      53.59866
     ],
     [
      -116.36755,
      53.59815
     ],
     [
      -116.43738,
      53.60162
     ],
     [
      -116.47534,
      53.59388
     ],
     [
      -116.53874,
      53.59165
     ],
     [
      -116.56715,
      53.58393
     ],
     [
      -116.64001,
      53.5797
     ],
     [
      -116.71554,
      53.55274
     ],
     [
      -116.75977,
      53.54674
     ],
     [
      -116.97842,
      53.54859
     ],
     [
      -117.10178,
      53.54164
     ],
     [
      -117.18753,
      53.54822
     ],
     [
      -117.25385,
      53.54175
     ],
     [
      -117.34742,
      53.50279
     ],
     [
      -117.4475,
      53.4731
     ],
     [
      -117.47217,
      53.45765
     ],
     [
      -117.51466,
      53.4155
     ],
     [
      -117.57961,
      53.38432
     ],
     [
      -117.63875,
      53.3664
     ],
     [
      -117.69093,
      53.33535
     ],
     [
      -117.74498,
      53.27972
     ],
     [
      -117.80952,
      53.24841
     ],
     [
      -117.8338,
      53.23099
     ],
     [
      -117.93906,
      53.20075
     ],
     [
      -117.98187,
      53.17917
     ],
     [
      -118.02589,
      53.1236
     ],
     [
      -118.04676,
      53.10433
     ],
     [
      -118.10137,
      53.07304
     ],
     [
      -118.10698,
      53.06161
     ],
     [
      -118.11226,
      53.04452
     ],
     [
      -118.10741,
      53.01445
     ],
     [
      -118.06762,
      52.97378
     ],
     [
      -118.05347,
      52.9439
     ],
     [
      -118.06062,
      52.90417
     ],
     [
      -118.08694,
      52.87347
     ],
     [
      -118.18292,
      52.86391
     ],
     [
      -118.27678,
      52.87128
     ],
     [
      -118.32426,
      52.88341
     ],
     [
      -118.35226,
      52.88277
     ],
     [
      -118.40563,
      52.88906
     ],
     [
      -118.44607,
      52.8881
     ],
     [
      -118.50131,
      52.87545
     ],
     [
      -118.52867,
      52.86535
     ],
     [
      -118.58424,
      52.8583
     ],
     [
      -118.65329,
      52.86596
     ],
     [
      -118.7588,
      52.90277
     ],
     [
      -118.85315,
      52.91339
     ],
     [
      -118.91763,
      52.90026
     ],
     [
      -118.94444,
      52.88441
     ],
     [
      -118.95895,
      52.87079
     ],
     [
      -118.97255,
      52.84588
     ],
     [
      -118.98718,
      52.83414
     ],
     [
      -118.99795,
      52.81308
     ],
     [
      -119.02966,
      52.78197
     ],
     [
      -119.07525,
      52.7693
     ],
     [
      -119.09727,
      52.77241
     ],
     [
      -119.18423,
      52.77163
     ],
     [
      -119.22079,
      52.76294
     ],
     [
      -119.23531,
      52.75117
     ],
     [
      -119.23451,
      52.74177
     ],
     [
      -119.24821,
      52.72059
     ],
     [
      -119.23698,
      52.69832
     ],
     [
      -119.22625,
      52.68169
     ],
     [
      -119.1629,
      52.629
     ],
     [
      -119.11779,
      52.60776
     ],
     [
      -119.09988,
      52.57815
     ],
     [
      -119.09849,
      52.56124
     ],
     [
      -119.0991,
      52.53106
     ],
     [
      -119.11234,
      52.50428
     ],
     [
      -119.1191,
      52.47393
     ],
     [
      -119.1409,
      52.43934
     ],
     [
      -119.16125,
      52.38785
     ],
     [
      -119.16466,
      52.31805
     ],
     [
      -119.18076,
      52.25352
     ],
     [
      -119.22735,
      52.18803
     ],
     [
      -119.27668,
      52.15632
     ],
     [
      -119.28743,
      52.13903
     ],
     [
      -119.30186,
      52.12914
     ],
     [
      -119.34323,
      52.11272
     ],
     [
      -119.3644,
      52.11014
     ],
     [
      -119.39099,
      52.09984
     ],
     [
      -119.4509,
      52.08651
     ],
     [
      -119.45953,
      52.08057
     ],
     [
      -119.52295,
      52.07273
     ],
     [
      -119.54661,
      52.06437
     ],
     [
      -119.57973,
      52.05944
     ],
     [
      -119.5912,
      52.0515
     ],
     [
      -119.60786,
      52.03397
     ],
     [
      -119.62185,
      51.98829
     ],
     [
      -119.61902,
      51.95828
     ],
     [
      -119.60565,
      51.94558
     ],
     [
      -119.60138,
      51.93256
     ],
     [
      -119.59734,
      51.88943
     ],
     [
      -119.60897,
      51.85138
     ],
     [
      -119.62786,
      51.82624
     ],
     [
      -119.65686,
      51.81202
     ],
     [
      -119.68797,
      51.78831
     ],
     [
      -119.71759,
      51.7496
     ],
     [
      -119.72484,
      51.73052
     ],
     [
      -119.76552,
      51.68198
     ],
     [
      -119.81582,
      51.67068
     ],
     [
      -120.04248,
      51.66932
     ],
     [
      -120.09249,
      51.65601
     ],
     [
      -120.11659,
      51.62681
     ],
     [
      -120.12323,
      51.60396
     ],
     [
      -120.13907,
      51.58262
     ],
     [
      -120.17912,
      51.56215
     ],
     [
      -120.20712,
      51.54217
     ],
     [
      -120.22167,
      51.50959
     ],
     [
      -120.22035,
      51.44195
     ],
     [
      -120.21294,
      51.4291
     ],
     [
      -120.2091,
      51.39354
     ],
     [
      -120.19113,
      51.3661
     ],
     [
      -120.16538,
      51.20934
     ],
     [
      -120.23611,
      51.06171
     ],
     [
      -120.23881,
      51.03155
     ],
     [
      -120.24864,
      51.01235
     ],
     [
      -120.25106,
      50.95217
     ],
     [
      -120.26904,
      50.89884
     ],
     [
      -120.3061,
      50.85781
     ],
     [
      -120.32827,
      50.84371
     ],
     [
      -120.35576,
      50.79746
     ],
     [
      -120.35562,
      50.76932
     ],
     [
      -120.37859,
      50.7364
     ],
     [
      -120.41263,
      50.72362
     ],
     [
      -120.46156,
      50.71204
     ],
     [
      -120.47351,
      50.6871
     ],
     [
      -120.45211,
      50.60179
     ],
     [
      -120.43809,
      50.58179
     ],
     [
      -120.39208,
      50.56511
     ],
     [
      -120.38165,
      50.55058
     ],
     [
      -120.37251,
      50.52098
     ],
     [
      -120.37574,
      50.47022
     ],
     [
      -120.39606,
      50.41496
     ],
     [
      -120.43318,
      50.35331
     ],
     [
      -120.4411,
      50.31922
     ],
     [
      -120.45627,
      50.29792
     ],
     [
      -120.46001,
      50.27901
     ],
     [
      -120.48679,
      50.25718
     ],
     [
      -120.52805,
      50.23466
     ],
     [
      -120.62776,
      50.21311
     ],
     [
      -120.70087,
      50.16465
     ],
     [
      -120.71919,
      50.14691
     ],
     [
      -120.74889,
      50.10238
     ],
     [
      -120.77294,
      50.08435
     ],
     [
      -120.88014,
      50.05655
     ],
     [
      -120.89102,
      50.05038
     ],
     [
      -120.9096,
      50.01199
     ],
     [
      -120.91387,
      49.95185
     ],
     [
      -120.92154,
      49.91963
     ],
     [
      -120.91927,
      49.90102
     ],
     [
      -120.93117,
      49.87983
     ],
     [
      -120.93699,
      49.83273
     ],
     [
      -120.96048,
      49.78849
     ],
     [
      -120.98185,
      49.77429
     ],
     [
      -120.99918,
      49.75094
     ],
     [
      -121.00892,
      49.71301
     ],
     [
      -121.00845,
      49.66252
     ],
     [
      -121.02148,
      49.62817
     ],
     [
      -121.05657,
      49.6095
     ],
     [
      -121.10423,
      49.5995
     ],
     [
      -121.12592,
      49.589
     ],
     [
      -121.16212,
      49.57958
     ],
     [
      -121.18474,
      49.55405
     ],
     [
      -121.19022,
      49.52944
     ],
     [
      -121.20686,
      49.50236
     ],
     [
      -121.23892,
      49.48379
     ],
     [
      -121.25787,
      49.45283
     ],
     [
      -121.29011,
      49.4361
     ],
     [
      -121.31046,
      49.41628
     ],
     [
      -121.34053,
      49.40526
     ],
     [
      -121.35475,
      49.40447
     ],
     [
      -121.40431,
      49.41104
     ],
     [
      -121.42285,
      49.42121
     ],
     [
      -121.47814,
      49.42743
     ],
     [
      -121.54097,
      49.42569
     ],
     [
      -121.57692,
      49.41613
     ],
     [
      -121.59271,
      49.40586
     ],
     [
      -121.61912,
      49.36878
     ],
     [
      -121.68263,
      49.33137
     ],
     [
      -121.70866,
      49.29242
     ],
     [
      -121.73596,
      49.28331
     ],
     [
      -121.80396,
      49.27921
     ],
     [
      -121.85929,
      49.26649
     ],
     [
      -121.90273,
      49.25073
     ],
     [
      -121.94802,
      49.24793
     ],
     [
      -121.98683,
      49.2399
     ],
     [
      -122.00865,
      49.23292
     ],
     [
      -122.01806,
      49.21923
     ],
     [
      -122.03878,
      49.20484
     ],
     [
      -122.10076,
      49.18033
     ],
     [
      -122.15642,
      49.17115
     ],
     [
      -122.18805,
      49.17285
     ],
     [
      -122.20611,
      49.17916
     ],
     [
      -122.29255,
      49.18473
     ],
     [
      -122.38793,
      49.15596
     ],
     [
      -122.40769,
      49.15463
     ],
     [
      -122.45702,
      49.14196
     ],
     [
      -122.49417,
      49.12447
     ],
     [
      -122.53024,
      49.11827
     ],
     [
      -122.57549,
      49.09832
     ],
     [
      -122.58528,
      49.08829
     ],
     [
      -122.62604,
      49.07612
     ],
     [
      -122.65701,
      49.07396
     ],
     [
      -122.67198,
      49.07853
     ],
     [
      -122.72297,
      49.07682
     ],
     [
      -122.75233,
      49.08223
     ],
     [
      -122.7833,
      49.08004
     ],
     [
      -122.81268,
      49.08543
     ],
     [
      -122.91338,
      49.0913
     ],
     [
      -122.97281,
      49.08885
     ],
     [
      -123.01658,
      49.07815
     ],
     [
      -123.02939,
      49.06972
     ],
     [
      -123.05407,
      49.06415
     ],
     [
      -123.08061,
      49.05282
     ],
     [
      -123.10841,
      49.04888
     ],
     [
      -123.16,
      49.02
     ]
    ]
   }
  },
  {
   "type": "Feature",
   "properties": {
    "kind": "terminal",
    "name": "Bruderheim"
   },
   "geometry": {
    "type": "Point",
    "coordinates": [
     -112.93,
     53.8
    ]
   }
  },
  {
   "type": "Feature",
   "properties": {
    "kind": "terminal",
    "name": "Roberts Bank"
   },
   "geometry": {
    "type": "Point",
    "coordinates": [
     -123.16,
     49.02
    ]
   }
  }
 ]
}